ONEWEB-0315             
1 49101U 21075AC  25350.16357084  .00000389  00000+0  10437-2 0  9995
2 49101  87.8939  26.9957 0001919 108.1528 251.9809 13.12559864211163
ONEWEB-0316             
1 49102U 21075AD  25350.14475709  .00000002  00000+0 -28823-4 0  9992
2 49102  87.9178  11.8200 0001789  96.6436 263.4900 13.18686870213085
ONEWEB-0317             
1 49103U 21075AE  25350.15734239  .00000044  00000+0  87184-4 0  9990
2 49103  87.8939  27.0147 0001629  71.8914 288.2392 13.12486118211184
ONEWEB-0318             
1 49104U 21075AF  25350.29320947  .00000036  00000+0  58391-4 0  9992
2 49104  87.9181  11.7779 0001805 103.0693 257.0640 13.18686346213064
ONEWEB-0319             
1 49105U 21075AG  25350.16722648  .00000059  00000+0  11764-3 0  9990
2 49105  87.9109  42.2644 0001762 113.5546 246.5771 13.17651001209501
ONEWEB-0323             
1 49106U 21075AH  25350.14776572 -.00000415  00000+0 -11881-2 0  9991
2 49106  87.8941  27.0040 0001723 119.6403 240.4897 13.12432527210545
ONEWEB-0329             
1 49107U 21075AJ  25350.17568111  .00000012  00000+0 -34600-5 0  9992
2 49107  87.9106  42.2642 0001685 103.4440 256.6880 13.17648482209482
ONEWEB-0330             
1 49108U 21075AK  25350.17650885  .00000039  00000+0  66987-4 0  9993
2 49108  87.9108  42.2699 0001532  99.5960 260.5344 13.17650615209525
ONEWEB-0292             
1 49186U 21083A   25350.03461487  .00000023  00000+0  29108-4 0  9998
2 49186  87.8970 356.6616 0001761  96.5985 263.5344 13.13471026206888
ONEWEB-0303             
1 49187U 21083B   25350.13816169 -.00000015  00000+0 -70702-4 0  9990
2 49187  87.9182  11.8104 0001778  99.4487 260.6846 13.18686618205855
ONEWEB-0306             
1 49188U 21083C   25350.12826352 -.00000015  00000+0 -71018-4 0  9996
2 49188  87.9180  11.7968 0001781  86.7497 273.3839 13.18686508205890
ONEWEB-0307             
1 49189U 21083D   25350.25723282  .00000206  00000+0  53004-3 0  9993
2 49189  87.8967 356.6085 0001760  90.9476 269.1855 13.13470412206910
ONEWEB-0320             
1 49190U 21083E   25350.36332081  .00000041  00000+0  70381-4 0  9995
2 49190  87.9175  11.7789 0001771  93.4004 266.7331 13.18687257205880
ONEWEB-0321             
1 49191U 21083F   25350.32404902  .00000109  00000+0  23512-3 0  9992
2 49191  87.9209 310.9031 0001928  72.8136 287.3209 13.20771369212695
ONEWEB-0322             
1 49192U 21083G   25350.25299784  .00000251  00000+0  65102-3 0  9994
2 49192  87.8971 356.6117 0002039  78.3185 281.8173 13.13470729206906
ONEWEB-0324             
1 49193U 21083H   25350.34929235 -.00000006  00000+0 -46955-4 0  9992
2 49193  87.9179  11.7595 0001646  93.5202 266.6118 13.18685525205905
ONEWEB-0325             
1 49194U 21083J   25350.35259186  .00000083  00000+0  17872-3 0  9993
2 49194  87.9181  11.7779 0001817  92.0925 268.0415 13.18687345205918
