[{"OBJECT_NAME":"ONEWEB-0315","OBJECT_ID":"2021-075AC","EPOCH":"2025-12-16T03:55:32.520576","MEAN_MOTION":13.12559864,"ECCENTRICITY":0.00019191,"INCLINATION":87.8939,"RA_OF_ASC_NODE":26.9957,"ARG_OF_PERICENTER":108.1528,"MEAN_ANOMALY":251.9809,"EPHEMERIS_TYPE":0,"CLASSIFICATION_TYPE":"U","NORAD_CAT_ID":49101,"ELEMENT_SET_NO":999,"REV_AT_EPOCH":21116,"BSTAR":0.0010437074,"MEAN_MOTION_DOT":3.89e-6,"MEAN_MOTION_DDOT":0},{"OBJECT_NAME":"ONEWEB-0316","OBJECT_ID":"2021-075AD","EPOCH":"2025-12-16T03:28:27.012576","MEAN_MOTION":13.1868687,"ECCENTRICITY":0.00017899,"INCLINATION":87.9178,"RA_OF_ASC_NODE":11.82,"ARG_OF_PERICENTER":96.6436,"MEAN_ANOMALY":263.49,"EPHEMERIS_TYPE":0,"CLASSIFICATION_TYPE":"U","NORAD_CAT_ID":49102,"ELEMENT_SET_NO":999,"REV_AT_EPOCH":21308,"BSTAR":-2.8823101e-5,"MEAN_MOTION_DOT":2.0e-8,"MEAN_MOTION_DDOT":0},{"OBJECT_NAME":"ONEWEB-0317","OBJECT_ID":"2021-075AE","EPOCH":"2025-12-16T03:46:34.382496","MEAN_MOTION":13.12486118,"ECCENTRICITY":0.00016293,"INCLINATION":87.8939,"RA_OF_ASC_NODE":27.0147,"ARG_OF_PERICENTER":71.8914,"MEAN_ANOMALY":288.2392,"EPHEMERIS_TYPE":0,"CLASSIFICATION_TYPE":"U","NORAD_CAT_ID":49103,"ELEMENT_SET_NO":999,"REV_AT_EPOCH":21118,"BSTAR":8.7184244e-5,"MEAN_MOTION_DOT":4.4e-7,"MEAN_MOTION_DDOT":0},{"OBJECT_NAME":"ONEWEB-0318","OBJECT_ID":"2021-075AF","EPOCH":"2025-12-16T07:02:13.298208","MEAN_MOTION":13.18686346,"ECCENTRICITY":0.00018056,"INCLINATION":87.9181,"RA_OF_ASC_NODE":11.7779,"ARG_OF_PERICENTER":103.0693,"MEAN_ANOMALY":257.064,"EPHEMERIS_TYPE":0,"CLASSIFICATION_TYPE":"U","NORAD_CAT_ID":49104,"ELEMENT_SET_NO":999,"REV_AT_EPOCH":21306,"BSTAR":5.8391079e-5,"MEAN_MOTION_DOT":3.6e-7,"MEAN_MOTION_DDOT":0},{"OBJECT_NAME":"ONEWEB-0319","OBJECT_ID":"2021-075AG","EPOCH":"2025-12-16T04:00:48.367872","MEAN_MOTION":13.17651001,"ECCENTRICITY":0.0001762,"INCLINATION":87.9109,"RA_OF_ASC_NODE":42.2644,"ARG_OF_PERICENTER":113.5546,"MEAN_ANOMALY":246.5771,"EPHEMERIS_TYPE":0,"CLASSIFICATION_TYPE":"U","NORAD_CAT_ID":49105,"ELEMENT_SET_NO":999,"REV_AT_EPOCH":20950,"BSTAR":0.00011763572,"MEAN_MOTION_DOT":5.9e-7,"MEAN_MOTION_DDOT":0},{"OBJECT_NAME":"ONEWEB-0323","OBJECT_ID":"2021-075AH","EPOCH":"2025-12-16T03:32:46.958208","MEAN_MOTION":13.12432527,"ECCENTRICITY":0.0001723,"INCLINATION":87.8941,"RA_OF_ASC_NODE":27.004,"ARG_OF_PERICENTER":119.6403,"MEAN_ANOMALY":240.4897,"EPHEMERIS_TYPE":0,"CLASSIFICATION_TYPE":"U","NORAD_CAT_ID":49106,"ELEMENT_SET_NO":999,"REV_AT_EPOCH":21054,"BSTAR":-0.0011881202,"MEAN_MOTION_DOT":-4.15e-6,"MEAN_MOTION_DDOT":0},{"OBJECT_NAME":"ONEWEB-0329","OBJECT_ID":"2021-075AJ","EPOCH":"2025-12-16T04:12:58.847904","MEAN_MOTION":13.17648482,"ECCENTRICITY":0.0001685,"INCLINATION":87.9106,"RA_OF_ASC_NODE":42.2642,"ARG_OF_PERICENTER":103.444,"MEAN_ANOMALY":256.688,"EPHEMERIS_TYPE":0,"CLASSIFICATION_TYPE":"U","NORAD_CAT_ID":49107,"ELEMENT_SET_NO":999,"REV_AT_EPOCH":20948,"BSTAR":-3.460016e-6,"MEAN_MOTION_DOT":1.2e-7,"MEAN_MOTION_DDOT":0},{"OBJECT_NAME":"ONEWEB-0330","OBJECT_ID":"2021-075AK","EPOCH":"2025-12-16T04:14:10.364640","MEAN_MOTION":13.17650615,"ECCENTRICITY":0.00015322,"INCLINATION":87.9108,"RA_OF_ASC_NODE":42.2699,"ARG_OF_PERICENTER":99.596,"MEAN_ANOMALY":260.5344,"EPHEMERIS_TYPE":0,"CLASSIFICATION_TYPE":"U","NORAD_CAT_ID":49108,"ELEMENT_SET_NO":999,"REV_AT_EPOCH":20952,"BSTAR":6.6986523e-5,"MEAN_MOTION_DOT":3.9e-7,"MEAN_MOTION_DDOT":0},{"OBJECT_NAME":"ONEWEB-0292","OBJECT_ID":"2021-083A","EPOCH":"2025-12-16T00:49:50.724768","MEAN_MOTION":13.13471026,"ECCENTRICITY":0.00017614,"INCLINATION":87.897,"RA_OF_ASC_NODE":356.6616,"ARG_OF_PERICENTER":96.5985,"MEAN_ANOMALY":263.5344,"EPHEMERIS_TYPE":0,"CLASSIFICATION_TYPE":"U","NORAD_CAT_ID":49186,"ELEMENT_SET_NO":999,"REV_AT_EPOCH":20688,"BSTAR":2.9108069e-5,"MEAN_MOTION_DOT":2.3e-7,"MEAN_MOTION_DDOT":0},{"OBJECT_NAME":"ONEWEB-0303","OBJECT_ID":"2021-083B","EPOCH":"2025-12-16T03:18:57.170016","MEAN_MOTION":13.18686618,"ECCENTRICITY":0.00017788,"INCLINATION":87.9182,"RA_OF_ASC_NODE":11.8104,"ARG_OF_PERICENTER":99.4487,"MEAN_ANOMALY":260.6846,"EPHEMERIS_TYPE":0,"CLASSIFICATION_TYPE":"U","NORAD_CAT_ID":49187,"ELEMENT_SET_NO":999,"REV_AT_EPOCH":20585,"BSTAR":-7.0702062e-5,"MEAN_MOTION_DOT":-1.5e-7,"MEAN_MOTION_DDOT":0},{"OBJECT_NAME":"ONEWEB-0306","OBJECT_ID":"2021-083C","EPOCH":"2025-12-16T03:04:41.968128","MEAN_MOTION":13.18686508,"ECCENTRICITY":0.0001781,"INCLINATION":87.918,"RA_OF_ASC_NODE":11.7968,"ARG_OF_PERICENTER":86.7497,"MEAN_ANOMALY":273.3839,"EPHEMERIS_TYPE":0,"CLASSIFICATION_TYPE":"U","NORAD_CAT_ID":49188,"ELEMENT_SET_NO":999,"REV_AT_EPOCH":20589,"BSTAR":-7.1018387e-5,"MEAN_MOTION_DOT":-1.5e-7,"MEAN_MOTION_DDOT":0},{"OBJECT_NAME":"ONEWEB-0307","OBJECT_ID":"2021-083D","EPOCH":"2025-12-16T06:10:24.915648","MEAN_MOTION":13.13470412,"ECCENTRICITY":0.00017601,"INCLINATION":87.8967,"RA_OF_ASC_NODE":356.6085,"ARG_OF_PERICENTER":90.9476,"MEAN_ANOMALY":269.1855,"EPHEMERIS_TYPE":0,"CLASSIFICATION_TYPE":"U","NORAD_CAT_ID":49189,"ELEMENT_SET_NO":999,"REV_AT_EPOCH":20691,"BSTAR":0.00053004464,"MEAN_MOTION_DOT":2.06e-6,"MEAN_MOTION_DDOT":0},{"OBJECT_NAME":"ONEWEB-0320","OBJECT_ID":"2021-083E","EPOCH":"2025-12-16T08:43:10.917984","MEAN_MOTION":13.18687257,"ECCENTRICITY":0.00017717,"INCLINATION":87.9175,"RA_OF_ASC_NODE":11.7789,"ARG_OF_PERICENTER":93.4004,"MEAN_ANOMALY":266.7331,"EPHEMERIS_TYPE":0,"CLASSIFICATION_TYPE":"U","NORAD_CAT_ID":49190,"ELEMENT_SET_NO":999,"REV_AT_EPOCH":20588,"BSTAR":7.038078e-5,"MEAN_MOTION_DOT":4.1e-7,"MEAN_MOTION_DDOT":0},{"OBJECT_NAME":"ONEWEB-0321","OBJECT_ID":"2021-083F","EPOCH":"2025-12-16T07:46:37.835328","MEAN_MOTION":13.20771369,"ECCENTRICITY":0.00019285,"INCLINATION":87.9209,"RA_OF_ASC_NODE":310.9031,"ARG_OF_PERICENTER":72.8136,"MEAN_ANOMALY":287.3209,"EPHEMERIS_TYPE":0,"CLASSIFICATION_TYPE":"U","NORAD_CAT_ID":49191,"ELEMENT_SET_NO":999,"REV_AT_EPOCH":21269,"BSTAR":0.00023512196,"MEAN_MOTION_DOT":1.09e-6,"MEAN_MOTION_DDOT":0},{"OBJECT_NAME":"ONEWEB-0322","OBJECT_ID":"2021-083G","EPOCH":"2025-12-16T06:04:19.013376","MEAN_MOTION":13.13470729,"ECCENTRICITY":0.00020394,"INCLINATION":87.8971,"RA_OF_ASC_NODE":356.6117,"ARG_OF_PERICENTER":78.3185,"MEAN_ANOMALY":281.8173,"EPHEMERIS_TYPE":0,"CLASSIFICATION_TYPE":"U","NORAD_CAT_ID":49192,"ELEMENT_SET_NO":999,"REV_AT_EPOCH":20690,"BSTAR":0.00065102126,"MEAN_MOTION_DOT":2.51e-6,"MEAN_MOTION_DDOT":0},{"OBJECT_NAME":"ONEWEB-0324","OBJECT_ID":"2021-083H","EPOCH":"2025-12-16T08:22:58.859040","MEAN_MOTION":13.18685525,"ECCENTRICITY":0.00016469,"INCLINATION":87.9179,"RA_OF_ASC_NODE":11.7595,"ARG_OF_PERICENTER":93.5202,"MEAN_ANOMALY":266.6118,"EPHEMERIS_TYPE":0,"CLASSIFICATION_TYPE":"U","NORAD_CAT_ID":49193,"ELEMENT_SET_NO":999,"REV_AT_EPOCH":20590,"BSTAR":-4.6955242e-5,"MEAN_MOTION_DOT":-6.0e-8,"MEAN_MOTION_DDOT":0},{"OBJECT_NAME":"ONEWEB-0325","OBJECT_ID":"2021-083J","EPOCH":"2025-12-16T08:27:43.936704","MEAN_MOTION":13.18687345,"ECCENTRICITY":0.00018175,"INCLINATION":87.9181,"RA_OF_ASC_NODE":11.7779,"ARG_OF_PERICENTER":92.0925,"MEAN_ANOMALY":268.0415,"EPHEMERIS_TYPE":0,"CLASSIFICATION_TYPE":"U","NORAD_CAT_ID":49194,"ELEMENT_SET_NO":999,"REV_AT_EPOCH":20591,"BSTAR":0.00017872293,"MEAN_MOTION_DOT":8.3e-7,"MEAN_MOTION_DDOT":0}]
